From: horizons@ssd.jpl.nasa.gov (Horizons Ephemeris System)
Subject: [Horizons] SMALL BODY #C(V30@399)_T(Itagaki (C/2009 E1)) (1/1)
Date: February 8, 2021 at 4:50:16 PM PST

Automated mail xmit by MAIL_REQUEST, PID= 12314 Mon Feb  8 16:50:16 2021
++++++++++++++++++++++++++++++++ (part 1 of 1)  +++++++++++++++++++++++++++++++
*******************************************************************************
JPL/HORIZONS                 Itagaki (C/2009 E1)           2021-Feb-08 16:50:16
Rec #:90003896 (+COV) Soln.date: 2014-Jun-13_19:44:19     # obs: 565 (158 days)

IAU76/J2000 helio. ecliptic osc. elements (au, days, deg., period=Julian yrs):

 EPOCH=  2454950.5 ! 2009-Apr-29.0000000 (TDB)    RMSW= n.a.
  EC= .9850730694214024   QR= .5997215250653719   TP= 2454929.4203429124
  OM= 105.9619994766535   W= 48.95522285460488    IN= 127.4534004104854
  A= 40.17714974338117    MA= .08158286076226669  ADIST= 79.75457796169697
  PER= 254.66947902929    N= .003870218           ANGMOM= .018769146
  DAN= .72289             DDN= 3.37103            L= 71.02946
  B= 36.778108            MOID= .22993401         TP= 2009-Apr-07.9203429124

Comet physical (GM= km^3/s^2; RAD= km):
  GM= n.a.                RAD= n.a.
  M1=  13.5     M2=  17.      k1=  16.    k2=  5.      PHCOF=  .030

COMET comments 
1: soln ref.= JPL#29, data arc: 2009-03-14 to 2009-08-19
2: k1=16., k2=5., phase coef.=0.03;
*******************************************************************************


*******************************************************************************
Ephemeris / MAIL_REQUEST Mon Feb  8 16:50:16 2021 Pasadena, USA  / Horizons
*******************************************************************************
Target body name: Itagaki (C/2009 E1)             {source: JPL#29}
Center body name: Earth (399)                     {source: DE431}
Center-site name: Heaven on Earth Observatory, Mayhill
*******************************************************************************
Start time      : A.D. 1990-Jan-01 00:00:00.0000 TDB
Stop  time      : A.D. 2020-Dec-31 00:00:00.0000 TDB
Step-size       : 120 steps
*******************************************************************************
Center geodetic : 254.471000,32.9035384,2.2360688 {E-lon(deg),Lat(deg),Alt(km)}
Center cylindric: 254.471000,5362.17112,3446.1964 {E-lon(deg),Dxy(km),Dz(km)}
Center pole/equ : High-precision EOP model        {East-longitude positive}
Center radii    : 6378.1 x 6378.1 x 6356.8 km     {Equator, meridian, pole}    
Small perturbers: Yes                             {source: SB431-N16}
Output units    : AU-D
Output type     : GEOMETRIC cartesian states
Output format   : 6 (LT, range, and range-rate)
EOP file        : eop.210208.p210502
EOP coverage    : DATA-BASED 1962-JAN-20 TO 2021-FEB-08. PREDICTS-> 2021-MAY-01
Reference frame : Ecliptic of J2000.0
*******************************************************************************
Initial IAU76/J2000 heliocentric ecliptic osculating elements (au, days, deg.):
 EPOCH=  2454950.5 ! 2009-Apr-29.0000000 (TDB)    RMSW= n.a.                  
  EC= .9850730694214024   QR= .5997215250653719   TP= 2454929.4203429124      
  OM= 105.9619994766535   W= 48.95522285460488    IN= 127.4534004104854       
 Equivalent ICRF heliocentric equatorial cartesian coordinates (au, au/d):
  X= 4.748380455329121E-01  Y=-2.656696121774985E-01  Z= 5.199342838116146E-01
 VX= 1.137808568954243E-02 VY=-2.498727778081063E-02 VZ=-5.019903578845396E-03
Comet physical (GM= km^3/s^2; RAD= km):                                        
  GM= n.a.                RAD= n.a.                                           
  M1=  13.5     M2=  17.      k1=  16.    k2=  5.      PHCOF=  .030           
*******************************************************************************
           JDTDB,            Calendar Date (TDB),                     LT,                     RG,                     RR,
**************************************************************************************************************************
$$SOE
2452421.300000000, A.D. 2002-May-26 19:12:00.0000,  1.039358170921097E-01,  1.799592887211037E+01, -1.951361072523703E-03,
2452515.650000000, A.D. 2002-Aug-29 03:36:00.0000,  1.062586382418502E-01,  1.839811288685014E+01,  6.278692346611096E-03,
2452610.000000000, A.D. 2002-Dec-01 12:00:00.0000,  1.061195779113197E-01,  1.837403533700088E+01, -8.936264324463639E-03,
2452704.350000000, A.D. 2003-Mar-05 20:24:00.0000,  9.814748247263773E-02,  1.699370980062630E+01, -1.588495472690072E-02,
2452798.700000000, A.D. 2003-Jun-08 04:48:00.0000,  9.349325844747611E-02,  1.618785589140607E+01,  4.345893749732961E-04,
2452893.050000000, A.D. 2003-Sep-10 13:12:00.0000,  9.608405826481874E-02,  1.663643897411235E+01,  4.462032617239708E-03,
2452987.400000000, A.D. 2003-Dec-13 21:36:00.0000,  9.446208256814023E-02,  1.635560258790440E+01, -1.155143539742775E-02,
2453081.750000000, A.D. 2004-Mar-17 06:00:00.0000,  8.593999329754400E-02,  1.488004857152993E+01, -1.480444341848144E-02,
2453176.100000000, A.D. 2004-Jun-19 14:24:00.0000,  8.246486181172753E-02,  1.427834820692355E+01,  2.233123226091530E-03,
2453270.450000000, A.D. 2004-Sep-21 22:48:00.0000,  8.494243487971226E-02,  1.470732668570336E+01,  2.343232841461236E-03,
2453364.800000000, A.D. 2004-Dec-25 07:12:00.0000,  8.168487492402381E-02,  1.414329766376137E+01, -1.435809112673217E-02,
2453459.150000000, A.D. 2005-Mar-29 15:36:00.0000,  7.290572650500435E-02,  1.262323523555761E+01, -1.290780237080181E-02,
2453553.500000000, A.D. 2005-Jul-02 00:00:00.0000,  7.061651588810894E-02,  1.222687070418128E+01,  3.467429486616241E-03,
2453647.850000000, A.D. 2005-Oct-04 08:24:00.0000,  7.252155582640844E-02,  1.255671814452790E+01, -8.344503787643032E-04,
2453742.200000000, A.D. 2006-Jan-06 16:48:00.0000,  6.750084816074572E-02,  1.168740955999199E+01, -1.643472368563180E-02,
2453836.550000000, A.D. 2006-Apr-11 01:12:00.0000,  5.877955424351936E-02,  1.017736432824975E+01, -1.083421550026429E-02,
2453930.900000000, A.D. 2006-Jul-14 09:36:00.0000,  5.757688735985421E-02,  9.969129012448070E+00,  3.864071671197161E-03,
2454025.250000000, A.D. 2006-Oct-16 18:00:00.0000,  5.831069507815781E-02,  1.009618388028727E+01, -4.745048760719273E-03,
2454119.600000000, A.D. 2007-Jan-19 02:24:00.0000,  5.137753584757725E-02,  8.895744572036376E+00, -1.847033848279470E-02,
2454213.950000000, A.D. 2007-Apr-23 10:48:00.0000,  4.306377950512949E-02,  7.456262283980125E+00, -7.880918422254832E-03,
2454308.300000000, A.D. 2007-Jul-26 19:12:00.0000,  4.267314990952811E-02,  7.388626866138038E+00,  2.487098727460288E-03,
2454402.650000000, A.D. 2007-Oct-29 03:36:00.0000,  4.127133802537077E-02,  7.145910662377232E+00, -1.018111681418401E-02,
2454497.000000000, A.D. 2008-Jan-31 12:00:00.0000,  3.205338260766839E-02,  5.549871157571627E+00, -1.999382988797069E-02,
2454591.350000000, A.D. 2008-May-04 20:24:00.0000,  2.471886940574796E-02,  4.279939563380748E+00, -4.305968335459244E-03,
2454685.700000000, A.D. 2008-Aug-07 04:48:00.0000,  2.437000475749637E-02,  4.219535522006200E+00, -2.570264190441594E-03,
2454780.050000000, A.D. 2008-Nov-09 13:12:00.0000,  1.789766738055681E-02,  3.098885044332242E+00, -2.187720896434405E-02,
2454874.400000000, A.D. 2009-Feb-11 21:36:00.0000,  4.080017733508041E-03,  7.064331717726363E-01, -1.280757298249861E-02,
2454968.750000000, A.D. 2009-May-17 06:00:00.0000,  8.084481482552077E-03,  1.399784576658178E+00, -9.678560866997017E-03,
2455063.100000000, A.D. 2009-Aug-19 14:24:00.0000,  9.658723909114108E-03,  1.672356203345465E+00,  2.746835892152255E-02,
2455157.450000000, A.D. 2009-Nov-21 22:48:00.0000,  2.488172310297108E-02,  4.308136806966089E+00,  2.196781323968984E-02,
2455251.800000000, A.D. 2010-Feb-24 07:12:00.0000,  3.012951923653043E-02,  5.216764540860520E+00, -2.562493010690667E-03,
2455346.150000000, A.D. 2010-May-29 15:36:00.0000,  2.699870963108614E-02,  4.674681661752885E+00, -8.396530202955229E-04,
2455440.500000000, A.D. 2010-Sep-01 00:00:00.0000,  3.437460876911225E-02,  5.951779008648661E+00,  2.460950347008420E-02,
2455534.850000000, A.D. 2010-Dec-04 08:24:00.0000,  4.651292855593320E-02,  8.053463929420241E+00,  1.421291731037283E-02,
2455629.200000000, A.D. 2011-Mar-08 16:48:00.0000,  4.767736666060237E-02,  8.255080137325070E+00, -7.608065612150227E-03,
2455723.550000000, A.D. 2011-Jun-11 01:12:00.0000,  4.450533133344410E-02,  7.705859245774537E+00,  2.884554153626857E-03,
2455817.900000000, A.D. 2011-Sep-13 09:36:00.0000,  5.303974633062964E-02,  9.183547395551759E+00,  2.371939062431721E-02,
2455912.250000000, A.D. 2011-Dec-16 18:00:00.0000,  6.319096048230392E-02,  1.094117564104095E+01,  8.794276558539907E-03,
2456006.600000000, A.D. 2012-Mar-20 02:24:00.0000,  6.192838195208671E-02,  1.072256694520411E+01, -9.700933388213666E-03,
2456100.950000000, A.D. 2012-Jun-22 10:48:00.0000,  5.959320748271982E-02,  1.031824401947531E+01,  6.797112730635912E-03,
2456195.300000000, A.D. 2012-Sep-24 19:12:00.0000,  6.902028986849224E-02,  1.195049273634968E+01,  2.223901652664232E-02,
2456289.650000000, A.D. 2012-Dec-28 03:36:00.0000,  7.732534749315347E-02,  1.338846888811005E+01,  4.354663013251793E-03,
2456384.000000000, A.D. 2013-Apr-01 12:00:00.0000,  7.435901152868236E-02,  1.287486373715331E+01, -1.008861823683107E-02,
2456478.350000000, A.D. 2013-Jul-04 20:24:00.0000,  7.326033839405792E-02,  1.268463438082970E+01,  9.884683384434916E-03,
2456572.700000000, A.D. 2013-Oct-07 04:48:00.0000,  8.330694088419244E-02,  1.442414967860816E+01,  2.098077141513354E-02,
2456667.050000000, A.D. 2014-Jan-09 13:12:00.0000,  8.974796761814662E-02,  1.553937888650361E+01, -3.703503107548585E-05,
2456761.400000000, A.D. 2014-Apr-13 21:36:00.0000,  8.561735064310402E-02,  1.482418472764188E+01, -9.238093237652545E-03,
2456855.750000000, A.D. 2014-Jul-17 06:00:00.0000,  8.597600008280543E-02,  1.488628295313780E+01,  1.296221556179396E-02,
